2026-134D               
1 69541U 26134D   26167.72412390  .00001266  00000+0  83078-4 0  9995
2 69541  97.7025 237.8255 0014840 276.5336  83.4203 15.09445295   237
2026-134E               
1 69542U 26134E   26167.72410194  .00001267  00000+0  83106-4 0  9999
2 69542  97.7041 237.8242 0014658 277.3931  82.5632 15.09467803   234
2026-134F               
1 69543U 26134F   26167.72405751  .00001269  00000+0  83160-4 0  9995
2 69543  97.6997 237.8242 0013912 279.0587  80.9067 15.09514165   230
2026-134G               
1 69544U 26134G   26167.72397038  .00001271  00000+0  83063-4 0  9999
2 69544  97.7039 237.8238 0014373 280.6343  79.3267 15.09597497   237
2026-134H               
1 69545U 26134H   26167.72390394  .00001274  00000+0  83079-4 0  9998
2 69545  97.7027 237.8253 0014257 282.3147  77.6485 15.09663011   222
SHIJIAN-31 (SJ-31)      
1 69570U 26136A   26167.84805573  .00006163  24751-6  28088-3 0  9997
2 69570  63.4649 356.1810 7310406 171.7246 356.2040  2.28095748    54
GUOWANG OBJECT A        
1 69572U 26137A   26169.59452439 -.00000117  00000+0  23098-4 0  9998
2 69572  50.0024 249.8098 0012296 231.3341 128.6459 13.92193428   219
GUOWANG OBJECT B        
1 69573U 26137B   26169.59444390 -.00000117  00000+0  23036-4 0  9998
2 69573  50.0044 249.8079 0012103 229.7286 130.2556 13.92270796   229
GUOWANG OBJECT C        
1 69574U 26137C   26169.59433523 -.00000117  00000+0  23013-4 0  9990
2 69574  49.9982 249.8001 0011686 230.4115 129.5753 13.92373365   224
GUOWANG OBJECT D        
1 69575U 26137D   26169.59429685 -.00000117  00000+0  23008-4 0  9999
2 69575  49.9985 249.7986 0011267 230.6699 129.3202 13.92409680   220
GUOWANG OBJECT E        
1 69576U 26137E   26169.59426003 -.00000117  00000+0  22982-4 0  9991
2 69576  50.0055 249.8116 0010949 233.1188 126.8708 13.92446015   221
GUOWANG OBJECT F        
1 69577U 26137F   26169.59412454 -.00000117  00000+0  22929-4 0  9998
2 69577  50.0024 249.8081 0010459 233.8133 126.1800 13.92574485   221
GUOWANG OBJECT G        
1 69578U 26137G   26169.59409304 -.00000117  00000+0  22921-4 0  9991
2 69578  49.9994 249.7957 0010332 234.4192 125.5745 13.92602607   227
GUOWANG OBJECT H        
1 69579U 26137H   26169.59403003 -.00000117  00000+0  22892-4 0  9999
2 69579  50.0021 249.8016 0010026 237.3774 122.6158 13.92663568   226
GUOWANG OBJECT J        
1 69580U 26137J   26169.59387822 -.00000117  00000+0  22795-4 0  9993
2 69580  50.0003 249.7971 0009415 232.5993 127.4051 13.92810411   223
CENTISPACE-1 GROUP 05 O*
1 69582U 26138A   26169.48309199 -.00000116  00000+0  19051-4 0  9995
2 69582  55.1445 276.3707 0009959 278.1722  81.8122 14.15572309   200
CENTISPACE-1 GROUP 05 O*
1 69583U 26138B   26169.48293133 -.00000110  00000+0  22030-4 0  9991
2 69583  55.1443 276.3680 0009094 279.3206  80.6740 14.15750919   207
CENTISPACE-1 GROUP 05 O*
1 69584U 26138C   26169.48286078 -.00000107  00000+0  23745-4 0  9992
2 69584  55.1452 276.3744 0008531 279.2700  80.7310 14.15830371   207
CENTISPACE-1 GROUP 05 O*
1 69585U 26138D   26169.41216859 -.00000101  00000+0  26394-4 0  9993
2 69585  55.1477 276.6254 0008653 281.1058  78.8943 14.15938331   190
CENTISPACE-1 GROUP 05 O*
1 69586U 26138E   26168.70618374 -.00000067  00000+0  43910-4 0  9997
2 69586  55.1398 279.2280 0007693 274.2812  85.7284 14.15991898    96
CENTISPACE-1 GROUP 05 O*
1 69587U 26138F   26169.41211311 -.00000098  00000+0  28096-4 0  9999
2 69587  55.1465 276.6321 0008296 285.7708  74.2351 14.16000241   193
CENTISPACE-1 GROUP 05 O*
1 69588U 26138G   26169.48255398 -.00000095  00000+0  29348-4 0  9998
2 69588  55.1448 276.3650 0007050 279.9943  80.0236 14.16170753   205
SPACEMOBILE-008         
1 69589U 26139A   26168.86759766  .00000613  00000+0  51823-4 0  9997
2 69589  52.9984 259.4733 0003688 322.0387  38.0343 15.12492987    97
SPACEMOBILE-009         
1 69590U 26139B   26168.93360786  .00000615  00000+0  51729-4 0  9994
2 69590  52.9957 259.1737 0003704 335.3231  24.7582 15.12664370    98
SPACEMOBILE-010         
1 69591U 26139C   26168.66930141  .00001603  00000+0  10726-3 0  9992
2 69591  52.9976 260.3752 0003918 341.5126  18.5722 15.12770881    58
