OBJECT_NAME,OBJECT_ID,EPOCH,MEAN_MOTION,ECCENTRICITY,INCLINATION,RA_OF_ASC_NODE,ARG_OF_PERICENTER,MEAN_ANOMALY,EPHEMERIS_TYPE,CLASSIFICATION_TYPE,NORAD_CAT_ID,ELEMENT_SET_NO,REV_AT_EPOCH,BSTAR,MEAN_MOTION_DOT,MEAN_MOTION_DDOT
2026-134D,2026-134D,2026-06-16T17:22:44.304960,15.09445295,.00148404,97.7025,237.8255,276.5336,83.4203,0,U,69541,999,23,.83078072E-4,.1266E-4,0
2026-134E,2026-134E,2026-06-16T17:22:42.407616,15.09467803,.00146582,97.7041,237.8242,277.3931,82.5632,0,U,69542,999,23,.83105574E-4,.1267E-4,0
2026-134F,2026-134F,2026-06-16T17:22:38.568864,15.09514165,.00139127,97.6997,237.8242,279.0587,80.9067,0,U,69543,999,23,.83160067E-4,.1269E-4,0
2026-134G,2026-134G,2026-06-16T17:22:31.040832,15.09597497,.00143734,97.7039,237.8238,280.6343,79.3267,0,U,69544,999,23,.83062569E-4,.1271E-4,0
2026-134H,2026-134H,2026-06-16T17:22:25.300416,15.09663011,.00142577,97.7027,237.8253,282.3147,77.6485,0,U,69545,999,22,.83079471E-4,.1274E-4,0
SHIJIAN-31 (SJ-31),2026-136A,2026-06-16T20:21:12.015072,2.28095748,.7310406,63.4649,356.1810,171.7246,356.2040,0,U,69570,999,5,.28088E-3,.6163E-4,.24751E-6
GUOWANG OBJECT A,2026-137A,2026-06-18T14:16:06.907296,13.92193428,.0012296,50.0024,249.8098,231.3341,128.6459,0,U,69572,999,21,.23097763E-4,-.117E-5,0
GUOWANG OBJECT B,2026-137B,2026-06-18T14:15:59.952960,13.92270796,.00121037,50.0044,249.8079,229.7286,130.2556,0,U,69573,999,22,.23035594E-4,-.117E-5,0
GUOWANG OBJECT C,2026-137C,2026-06-18T14:15:50.563872,13.92373365,.00116865,49.9982,249.8001,230.4115,129.5753,0,U,69574,999,22,.2301298E-4,-.117E-5,0
GUOWANG OBJECT D,2026-137D,2026-06-18T14:15:47.247840,13.92409680,.00112676,49.9985,249.7986,230.6699,129.3202,0,U,69575,999,22,.23007878E-4,-.117E-5,0
GUOWANG OBJECT E,2026-137E,2026-06-18T14:15:44.066592,13.92446015,.00109497,50.0055,249.8116,233.1188,126.8708,0,U,69576,999,22,.22982077E-4,-.117E-5,0
GUOWANG OBJECT F,2026-137F,2026-06-18T14:15:32.360256,13.92574485,.00104593,50.0024,249.8081,233.8133,126.1800,0,U,69577,999,22,.22929169E-4,-.117E-5,0
GUOWANG OBJECT G,2026-137G,2026-06-18T14:15:29.638656,13.92602607,.00103325,49.9994,249.7957,234.4192,125.5745,0,U,69578,999,22,.22921061E-4,-.117E-5,0
GUOWANG OBJECT H,2026-137H,2026-06-18T14:15:24.194592,13.92663568,.00100267,50.0021,249.8016,237.3774,122.6158,0,U,69579,999,22,.22891513E-4,-.117E-5,0
GUOWANG OBJECT J,2026-137J,2026-06-18T14:15:11.078208,13.92810411,.00094156,50.0003,249.7971,232.5993,127.4051,0,U,69580,999,22,.22795077E-4,-.117E-5,0
CENTISPACE-1 GROUP 05 OBJECT A,2026-138A,2026-06-18T11:35:39.147936,14.15572309,.00099597,55.1445,276.3707,278.1722,81.8122,0,U,69582,999,20,.19050865E-4,-.116E-5,0
CENTISPACE-1 GROUP 05 OBJECT B,2026-138B,2026-06-18T11:35:25.266912,14.15750919,.00090945,55.1443,276.3680,279.3206,80.6740,0,U,69583,999,20,.22029744E-4,-.11E-5,0
CENTISPACE-1 GROUP 05 OBJECT C,2026-138C,2026-06-18T11:35:19.171392,14.15830371,.00085314,55.1452,276.3744,279.2700,80.7310,0,U,69584,999,20,.23744891E-4,-.107E-5,0
CENTISPACE-1 GROUP 05 OBJECT D,2026-138D,2026-06-18T09:53:31.366176,14.15938331,.00086535,55.1477,276.6254,281.1058,78.8943,0,U,69585,999,19,.26393744E-4,-.101E-5,0
CENTISPACE-1 GROUP 05 OBJECT E,2026-138E,2026-06-17T16:56:54.275136,14.15991898,.00076936,55.1398,279.2280,274.2812,85.7284,0,U,69586,999,9,.43909986E-4,-.67E-6,0
CENTISPACE-1 GROUP 05 OBJECT F,2026-138F,2026-06-18T09:53:26.572704,14.16000241,.00082967,55.1465,276.6321,285.7708,74.2351,0,U,69587,999,19,.28096285E-4,-.98E-6,0
CENTISPACE-1 GROUP 05 OBJECT G,2026-138G,2026-06-18T11:34:52.663872,14.16170753,.000705,55.1448,276.3650,279.9943,80.0236,0,U,69588,999,20,.2934805E-4,-.95E-6,0
SPACEMOBILE-008,2026-139A,2026-06-17T20:49:20.437824,15.12492987,.00036881,52.9984,259.4733,322.0387,38.0343,0,U,69589,999,9,.51823416E-4,.613E-5,0
SPACEMOBILE-009,2026-139B,2026-06-17T22:24:23.719104,15.12664370,.00037048,52.9957,259.1737,335.3231,24.7582,0,U,69590,999,9,.51728609E-4,.615E-5,0
SPACEMOBILE-010,2026-139C,2026-06-17T16:03:47.641824,15.12770881,.0003918,52.9976,260.3752,341.5126,18.5722,0,U,69591,999,5,.10725569E-3,.1603E-4,0
